{
  "type": "FeatureCollection",
  "features": [
    {
      "type": "Feature",
      "geometry": {
        "type": "LineString",
        "coordinates": [
          [
            -1.992,
            5.3
          ],
          [
            -1.96,
            5.3
          ]
        ]
      },
      "properties": {
        "road_id": "RD-H01",
        "name": "Street 1",
        "road_type": "Primary",
        "surface": "Gravel",
        "lanes": 2,
        "length_km": 3.547
      }
    },
    {
      "type": "Feature",
      "geometry": {
        "type": "LineString",
        "coordinates": [
          [
            -1.992,
            5.303999999999999
          ],
          [
            -1.96,
            5.303999999999999
          ]
        ]
      },
      "properties": {
        "road_id": "RD-H02",
        "name": "Street 2",
        "road_type": "Secondary",
        "surface": "Earth",
        "lanes": 1,
        "length_km": 3.547
      }
    },
    {
      "type": "Feature",
      "geometry": {
        "type": "LineString",
        "coordinates": [
          [
            -1.992,
            5.308
          ],
          [
            -1.96,
            5.308
          ]
        ]
      },
      "properties": {
        "road_id": "RD-H03",
        "name": "Main Street",
        "road_type": "Tertiary",
        "surface": "Earth",
        "lanes": 2,
        "length_km": 3.547
      }
    },
    {
      "type": "Feature",
      "geometry": {
        "type": "LineString",
        "coordinates": [
          [
            -1.992,
            5.311999999999999
          ],
          [
            -1.96,
            5.311999999999999
          ]
        ]
      },
      "properties": {
        "road_id": "RD-H04",
        "name": "Street 4",
        "road_type": "Track",
        "surface": "Asphalt",
        "lanes": 2,
        "length_km": 3.547
      }
    },
    {
      "type": "Feature",
      "geometry": {
        "type": "LineString",
        "coordinates": [
          [
            -1.992,
            5.316
          ],
          [
            -1.96,
            5.316
          ]
        ]
      },
      "properties": {
        "road_id": "RD-H05",
        "name": "Street 5",
        "road_type": "Track",
        "surface": "Gravel",
        "lanes": 2,
        "length_km": 3.547
      }
    },
    {
      "type": "Feature",
      "geometry": {
        "type": "LineString",
        "coordinates": [
          [
            -1.992,
            5.319999999999999
          ],
          [
            -1.96,
            5.319999999999999
          ]
        ]
      },
      "properties": {
        "road_id": "RD-H06",
        "name": "Street 6",
        "road_type": "Track",
        "surface": "Gravel",
        "lanes": 2,
        "length_km": 3.547
      }
    },
    {
      "type": "Feature",
      "geometry": {
        "type": "LineString",
        "coordinates": [
          [
            -1.99,
            5.298
          ],
          [
            -1.99,
            5.33
          ]
        ]
      },
      "properties": {
        "road_id": "RD-V01",
        "name": "Avenue 1",
        "road_type": "Primary",
        "surface": "Gravel",
        "lanes": 1,
        "length_km": 3.537
      }
    },
    {
      "type": "Feature",
      "geometry": {
        "type": "LineString",
        "coordinates": [
          [
            -1.984,
            5.298
          ],
          [
            -1.984,
            5.33
          ]
        ]
      },
      "properties": {
        "road_id": "RD-V02",
        "name": "Independence Road",
        "road_type": "Secondary",
        "surface": "Earth",
        "lanes": 1,
        "length_km": 3.537
      }
    },
    {
      "type": "Feature",
      "geometry": {
        "type": "LineString",
        "coordinates": [
          [
            -1.978,
            5.298
          ],
          [
            -1.978,
            5.33
          ]
        ]
      },
      "properties": {
        "road_id": "RD-V03",
        "name": "Avenue 3",
        "road_type": "Tertiary",
        "surface": "Gravel",
        "lanes": 2,
        "length_km": 3.537
      }
    },
    {
      "type": "Feature",
      "geometry": {
        "type": "LineString",
        "coordinates": [
          [
            -1.972,
            5.298
          ],
          [
            -1.972,
            5.33
          ]
        ]
      },
      "properties": {
        "road_id": "RD-V04",
        "name": "Avenue 4",
        "road_type": "Track",
        "surface": "Earth",
        "lanes": 1,
        "length_km": 3.537
      }
    },
    {
      "type": "Feature",
      "geometry": {
        "type": "LineString",
        "coordinates": [
          [
            -1.966,
            5.298
          ],
          [
            -1.966,
            5.33
          ]
        ]
      },
      "properties": {
        "road_id": "RD-V05",
        "name": "Avenue 5",
        "road_type": "Track",
        "surface": "Gravel",
        "lanes": 1,
        "length_km": 3.537
      }
    }
  ]
}