{
  "type": "FeatureCollection",
  "features": [
    {
      "type": "Feature",
      "geometry": {
        "type": "Polygon",
        "coordinates": [
          [
            [
              -1.99,
              5.3
            ],
            [
              -1.9863011037147664,
              5.3
            ],
            [
              -1.9863011037147664,
              5.303811285751538
            ],
            [
              -1.99,
              5.303811285751538
            ],
            [
              -1.99,
              5.3
            ]
          ]
        ]
      },
      "properties": {
        "parcel_id": "TWKP-0001",
        "owner_name": "Kweku Quaye",
        "land_use": "Agricultural",
        "tenure_type": "Leasehold",
        "area_m2": 172733.1,
        "area_ha": 17.2733,
        "reg_year": 2003,
        "district": "Tarkwa-Nsuaem",
        "region": "Western",
        "value_GHS": 13593397.91,
        "centroid_lon": -1.988151,
        "centroid_lat": 5.301906,
        "registered": true
      }
    },
    {
      "type": "Feature",
      "geometry": {
        "type": "Polygon",
        "coordinates": [
          [
            [
              -1.9856,
              5.3
            ],
            [
              -1.9824571196369873,
              5.3
            ],
            [
              -1.9824571196369873,
              5.303271599251308
            ],
            [
              -1.9856,
              5.303271599251308
            ],
            [
              -1.9856,
              5.3
            ]
          ]
        ]
      },
      "properties": {
        "parcel_id": "TWKP-0002",
        "owner_name": "Akua Asante",
        "land_use": "Residential",
        "tenure_type": "Customary",
        "area_m2": 125985.3,
        "area_ha": 12.5985,
        "reg_year": 2014,
        "district": "Tarkwa-Nsuaem",
        "region": "Western",
        "value_GHS": 38482902.23,
        "centroid_lon": -1.984029,
        "centroid_lat": 5.301636,
        "registered": true
      }
    },
    {
      "type": "Feature",
      "geometry": {
        "type": "Polygon",
        "coordinates": [
          [
            [
              -1.9812,
              5.3
            ],
            [
              -1.9776698186168973,
              5.3
            ],
            [
              -1.9776698186168973,
              5.303044561576938
            ],
            [
              -1.9812,
              5.303044561576938
            ],
            [
              -1.9812,
              5.3
            ]
          ]
        ]
      },
      "properties": {
        "parcel_id": "TWKP-0003",
        "owner_name": "Esi Boateng",
        "land_use": "Commercial",
        "tenure_type": "Freehold",
        "area_m2": 131690.3,
        "area_ha": 13.169,
        "reg_year": 2012,
        "district": "Tarkwa-Nsuaem",
        "region": "Western",
        "value_GHS": 100399083.0,
        "centroid_lon": -1.979435,
        "centroid_lat": 5.301522,
        "registered": false
      }
    },
    {
      "type": "Feature",
      "geometry": {
        "type": "Polygon",
        "coordinates": [
          [
            [
              -1.9768,
              5.3
            ],
            [
              -1.9728797690562048,
              5.3
            ],
            [
              -1.9728797690562048,
              5.303647892732125
            ],
            [
              -1.9768,
              5.303647892732125
            ],
            [
              -1.9768,
              5.3
            ]
          ]
        ]
      },
      "properties": {
        "parcel_id": "TWKP-0004",
        "owner_name": "Ama Amoah",
        "land_use": "Agricultural",
        "tenure_type": "Leasehold",
        "area_m2": 175220.8,
        "area_ha": 17.5221,
        "reg_year": 2002,
        "district": "Tarkwa-Nsuaem",
        "region": "Western",
        "value_GHS": 16628493.35,
        "centroid_lon": -1.97484,
        "centroid_lat": 5.301824,
        "registered": false
      }
    },
    {
      "type": "Feature",
      "geometry": {
        "type": "Polygon",
        "coordinates": [
          [
            [
              -1.9724,
              5.3
            ],
            [
              -1.9688689269539839,
              5.3
            ],
            [
              -1.9688689269539839,
              5.302275809805211
            ],
            [
              -1.9724,
              5.302275809805211
            ],
            [
              -1.9724,
              5.3
            ]
          ]
        ]
      },
      "properties": {
        "parcel_id": "TWKP-0005",
        "owner_name": "Esi Frimpong",
        "land_use": "Agricultural",
        "tenure_type": "Leasehold",
        "area_m2": 98463.3,
        "area_ha": 9.8463,
        "reg_year": 1991,
        "district": "Tarkwa-Nsuaem",
        "region": "Western",
        "value_GHS": 6410003.43,
        "centroid_lon": -1.970634,
        "centroid_lat": 5.301138,
        "registered": false
      }
    },
    {
      "type": "Feature",
      "geometry": {
        "type": "Polygon",
        "coordinates": [
          [
            [
              -1.968,
              5.3
            ],
            [
              -1.96457892804416,
              5.3
            ],
            [
              -1.96457892804416,
              5.303292540111837
            ],
            [
              -1.968,
              5.303292540111837
            ],
            [
              -1.968,
              5.3
            ]
          ]
        ]
      },
      "properties": {
        "parcel_id": "TWKP-0006",
        "owner_name": "Akua Asante",
        "land_use": "Residential",
        "tenure_type": "Leasehold",
        "area_m2": 138014.7,
        "area_ha": 13.8015,
        "reg_year": 1988,
        "district": "Tarkwa-Nsuaem",
        "region": "Western",
        "value_GHS": 53621277.37,
        "centroid_lon": -1.966289,
        "centroid_lat": 5.301646,
        "registered": false
      }
    },
    {
      "type": "Feature",
      "geometry": {
        "type": "Polygon",
        "coordinates": [
          [
            [
              -1.99,
              5.3033
            ],
            [
              -1.9850524143589736,
              5.3033
            ],
            [
              -1.9850524143589736,
              5.30647621996186
            ],
            [
              -1.99,
              5.30647621996186
            ],
            [
              -1.99,
              5.3033
            ]
          ]
        ]
      },
      "properties": {
        "parcel_id": "TWKP-0007",
        "owner_name": "Esi Amoah",
        "land_use": "Public/Institutional",
        "tenure_type": "Freehold",
        "area_m2": 192545.6,
        "area_ha": 19.2546,
        "reg_year": 2007,
        "district": "Tarkwa-Nsuaem",
        "region": "Western",
        "value_GHS": 45612851.53,
        "centroid_lon": -1.987526,
        "centroid_lat": 5.304888,
        "registered": false
      }
    },
    {
      "type": "Feature",
      "geometry": {
        "type": "Polygon",
        "coordinates": [
          [
            [
              -1.9856,
              5.3033
            ],
            [
              -1.9810064317356704,
              5.3033
            ],
            [
              -1.9810064317356704,
              5.306371445838301
            ],
            [
              -1.9856,
              5.306371445838301
            ],
            [
              -1.9856,
              5.3033
            ]
          ]
        ]
      },
      "properties": {
        "parcel_id": "TWKP-0008",
        "owner_name": "Kwabena Mensah",
        "land_use": "Agricultural",
        "tenure_type": "State Allocation",
        "area_m2": 172871.2,
        "area_ha": 17.2871,
        "reg_year": 2013,
        "district": "Tarkwa-Nsuaem",
        "region": "Western",
        "value_GHS": 11150255.5,
        "centroid_lon": -1.983303,
        "centroid_lat": 5.304836,
        "registered": true
      }
    },
    {
      "type": "Feature",
      "geometry": {
        "type": "Polygon",
        "coordinates": [
          [
            [
              -1.9812,
              5.3033
            ],
            [
              -1.9774522843563787,
              5.3033
            ],
            [
              -1.9774522843563787,
              5.305928278714493
            ],
            [
              -1.9812,
              5.305928278714493
            ],
            [
              -1.9812,
              5.3033
            ]
          ]
        ]
      },
      "properties": {
        "parcel_id": "TWKP-0009",
        "owner_name": "Kofi Boateng",
        "land_use": "Residential",
        "tenure_type": "Freehold",
        "area_m2": 120689.0,
        "area_ha": 12.0689,
        "reg_year": 1992,
        "district": "Tarkwa-Nsuaem",
        "region": "Western",
        "value_GHS": 46824658.56,
        "centroid_lon": -1.979326,
        "centroid_lat": 5.304614,
        "registered": true
      }
    },
    {
      "type": "Feature",
      "geometry": {
        "type": "Polygon",
        "coordinates": [
          [
            [
              -1.9768,
              5.3033
            ],
            [
              -1.9731396822514937,
              5.3033
            ],
            [
              -1.9731396822514937,
              5.305608564307145
            ],
            [
              -1.9768,
              5.305608564307145
            ],
            [
              -1.9768,
              5.3033
            ]
          ]
        ]
      },
      "properties": {
        "parcel_id": "TWKP-0010",
        "owner_name": "Kwame Acheampong",
        "land_use": "Industrial",
        "tenure_type": "Leasehold",
        "area_m2": 103535.8,
        "area_ha": 10.3536,
        "reg_year": 2018,
        "district": "Tarkwa-Nsuaem",
        "region": "Western",
        "value_GHS": 47853880.69,
        "centroid_lon": -1.97497,
        "centroid_lat": 5.304454,
        "registered": true
      }
    },
    {
      "type": "Feature",
      "geometry": {
        "type": "Polygon",
        "coordinates": [
          [
            [
              -1.9724,
              5.3033
            ],
            [
              -1.9678489451719885,
              5.3033
            ],
            [
              -1.9678489451719885,
              5.30654760344844
            ],
            [
              -1.9724,
              5.30654760344844
            ],
            [
              -1.9724,
              5.3033
            ]
          ]
        ]
      },
      "properties": {
        "parcel_id": "TWKP-0011",
        "owner_name": "Kwabena Boateng",
        "land_use": "Public/Institutional",
        "tenure_type": "Leasehold",
        "area_m2": 181094.3,
        "area_ha": 18.1094,
        "reg_year": 2021,
        "district": "Tarkwa-Nsuaem",
        "region": "Western",
        "value_GHS": 39996994.87,
        "centroid_lon": -1.970124,
        "centroid_lat": 5.304924,
        "registered": true
      }
    },
    {
      "type": "Feature",
      "geometry": {
        "type": "Polygon",
        "coordinates": [
          [
            [
              -1.968,
              5.3033
            ],
            [
              -1.963349678768109,
              5.3033
            ],
            [
              -1.963349678768109,
              5.306288832073456
            ],
            [
              -1.968,
              5.306288832073456
            ],
            [
              -1.968,
              5.3033
            ]
          ]
        ]
      },
      "properties": {
        "parcel_id": "TWKP-0012",
        "owner_name": "Kofi Acheampong",
        "land_use": "Commercial",
        "tenure_type": "Leasehold",
        "area_m2": 170299.8,
        "area_ha": 17.03,
        "reg_year": 1997,
        "district": "Tarkwa-Nsuaem",
        "region": "Western",
        "value_GHS": 134897617.26,
        "centroid_lon": -1.965675,
        "centroid_lat": 5.304794,
        "registered": true
      }
    },
    {
      "type": "Feature",
      "geometry": {
        "type": "Polygon",
        "coordinates": [
          [
            [
              -1.99,
              5.3065999999999995
            ],
            [
              -1.9855307613925772,
              5.3065999999999995
            ],
            [
              -1.9855307613925772,
              5.30895079661793
            ],
            [
              -1.99,
              5.30895079661793
            ],
            [
              -1.99,
              5.3065999999999995
            ]
          ]
        ]
      },
      "properties": {
        "parcel_id": "TWKP-0013",
        "owner_name": "Ama Acheampong",
        "land_use": "Agricultural",
        "tenure_type": "Leasehold",
        "area_m2": 128728.9,
        "area_ha": 12.8729,
        "reg_year": 2013,
        "district": "Tarkwa-Nsuaem",
        "region": "Western",
        "value_GHS": 9432229.95,
        "centroid_lon": -1.987765,
        "centroid_lat": 5.307775,
        "registered": true
      }
    },
    {
      "type": "Feature",
      "geometry": {
        "type": "Polygon",
        "coordinates": [
          [
            [
              -1.9856,
              5.3065999999999995
            ],
            [
              -1.9805687256343778,
              5.3065999999999995
            ],
            [
              -1.9805687256343778,
              5.310154616683215
            ],
            [
              -1.9856,
              5.310154616683215
            ],
            [
              -1.9856,
              5.3065999999999995
            ]
          ]
        ]
      },
      "properties": {
        "parcel_id": "TWKP-0014",
        "owner_name": "Esi Yeboah",
        "land_use": "Agricultural",
        "tenure_type": "Customary",
        "area_m2": 219128.1,
        "area_ha": 21.9128,
        "reg_year": 2012,
        "district": "Tarkwa-Nsuaem",
        "region": "Western",
        "value_GHS": 16944807.47,
        "centroid_lon": -1.983084,
        "centroid_lat": 5.308377,
        "registered": false
      }
    },
    {
      "type": "Feature",
      "geometry": {
        "type": "Polygon",
        "coordinates": [
          [
            [
              -1.9812,
              5.3065999999999995
            ],
            [
              -1.9776215719495873,
              5.3065999999999995
            ],
            [
              -1.9776215719495873,
              5.308919758318461
            ],
            [
              -1.9812,
              5.308919758318461
            ],
            [
              -1.9812,
              5.3065999999999995
            ]
          ]
        ]
      },
      "properties": {
        "parcel_id": "TWKP-0015",
        "owner_name": "Fiifi Quaye",
        "land_use": "Residential",
        "tenure_type": "State Allocation",
        "area_m2": 101709.7,
        "area_ha": 10.171,
        "reg_year": 1985,
        "district": "Tarkwa-Nsuaem",
        "region": "Western",
        "value_GHS": 34560456.71,
        "centroid_lon": -1.979411,
        "centroid_lat": 5.30776,
        "registered": false
      }
    },
    {
      "type": "Feature",
      "geometry": {
        "type": "Polygon",
        "coordinates": [
          [
            [
              -1.9768,
              5.3065999999999995
            ],
            [
              -1.9719342466001846,
              5.3065999999999995
            ],
            [
              -1.9719342466001846,
              5.308712513834956
            ],
            [
              -1.9768,
              5.308712513834956
            ],
            [
              -1.9768,
              5.3065999999999995
            ]
          ]
        ]
      },
      "properties": {
        "parcel_id": "TWKP-0016",
        "owner_name": "Kwame Boateng",
        "land_use": "Commercial",
        "tenure_type": "Leasehold",
        "area_m2": 125943.8,
        "area_ha": 12.5944,
        "reg_year": 2021,
        "district": "Tarkwa-Nsuaem",
        "region": "Western",
        "value_GHS": 91461892.19,
        "centroid_lon": -1.974367,
        "centroid_lat": 5.307656,
        "registered": true
      }
    },
    {
      "type": "Feature",
      "geometry": {
        "type": "Polygon",
        "coordinates": [
          [
            [
              -1.9724,
              5.3065999999999995
            ],
            [
              -1.9691961014987849,
              5.3065999999999995
            ],
            [
              -1.9691961014987849,
              5.309093775595231
            ],
            [
              -1.9724,
              5.309093775595231
            ],
            [
              -1.9724,
              5.3065999999999995
            ]
          ]
        ]
      },
      "properties": {
        "parcel_id": "TWKP-0017",
        "owner_name": "Afia Acheampong",
        "land_use": "Agricultural",
        "tenure_type": "Leasehold",
        "area_m2": 97895.7,
        "area_ha": 9.7896,
        "reg_year": 1996,
        "district": "Tarkwa-Nsuaem",
        "region": "Western",
        "value_GHS": 7823036.5,
        "centroid_lon": -1.970798,
        "centroid_lat": 5.307847,
        "registered": true
      }
    },
    {
      "type": "Feature",
      "geometry": {
        "type": "Polygon",
        "coordinates": [
          [
            [
              -1.968,
              5.3065999999999995
            ],
            [
              -1.964516382813494,
              5.3065999999999995
            ],
            [
              -1.964516382813494,
              5.308766396505238
            ],
            [
              -1.968,
              5.308766396505238
            ],
            [
              -1.968,
              5.3065999999999995
            ]
          ]
        ]
      },
      "properties": {
        "parcel_id": "TWKP-0018",
        "owner_name": "Yaw Mensah",
        "land_use": "Agricultural",
        "tenure_type": "Leasehold",
        "area_m2": 92468.9,
        "area_ha": 9.2469,
        "reg_year": 2007,
        "district": "Tarkwa-Nsuaem",
        "region": "Western",
        "value_GHS": 7795058.27,
        "centroid_lon": -1.966258,
        "centroid_lat": 5.307683,
        "registered": true
      }
    },
    {
      "type": "Feature",
      "geometry": {
        "type": "Polygon",
        "coordinates": [
          [
            [
              -1.99,
              5.3099
            ],
            [
              -1.9859257570000388,
              5.3099
            ],
            [
              -1.9859257570000388,
              5.3128060096962315
            ],
            [
              -1.99,
              5.3128060096962315
            ],
            [
              -1.99,
              5.3099
            ]
          ]
        ]
      },
      "properties": {
        "parcel_id": "TWKP-0019",
        "owner_name": "Adwoa Quaye",
        "land_use": "Agricultural",
        "tenure_type": "Leasehold",
        "area_m2": 145067.1,
        "area_ha": 14.5067,
        "reg_year": 1995,
        "district": "Tarkwa-Nsuaem",
        "region": "Western",
        "value_GHS": 10408436.48,
        "centroid_lon": -1.987963,
        "centroid_lat": 5.311353,
        "registered": false
      }
    },
    {
      "type": "Feature",
      "geometry": {
        "type": "Polygon",
        "coordinates": [
          [
            [
              -1.9856,
              5.3099
            ],
            [
              -1.9816712784773296,
              5.3099
            ],
            [
              -1.9816712784773296,
              5.31377016165361
            ],
            [
              -1.9856,
              5.31377016165361
            ],
            [
              -1.9856,
              5.3099
            ]
          ]
        ]
      },
      "properties": {
        "parcel_id": "TWKP-0020",
        "owner_name": "Kwame Amoah",
        "land_use": "Residential",
        "tenure_type": "Customary",
        "area_m2": 186296.8,
        "area_ha": 18.6297,
        "reg_year": 2000,
        "district": "Tarkwa-Nsuaem",
        "region": "Western",
        "value_GHS": 60529545.95,
        "centroid_lon": -1.983636,
        "centroid_lat": 5.311835,
        "registered": true
      }
    },
    {
      "type": "Feature",
      "geometry": {
        "type": "Polygon",
        "coordinates": [
          [
            [
              -1.9812,
              5.3099
            ],
            [
              -1.9783021396602687,
              5.3099
            ],
            [
              -1.9783021396602687,
              5.313063607297739
            ],
            [
              -1.9812,
              5.313063607297739
            ],
            [
              -1.9812,
              5.3099
            ]
          ]
        ]
      },
      "properties": {
        "parcel_id": "TWKP-0021",
        "owner_name": "Kwabena Boateng",
        "land_use": "Agricultural",
        "tenure_type": "Freehold",
        "area_m2": 112327.2,
        "area_ha": 11.2327,
        "reg_year": 1987,
        "district": "Tarkwa-Nsuaem",
        "region": "Western",
        "value_GHS": 8442210.37,
        "centroid_lon": -1.979751,
        "centroid_lat": 5.311482,
        "registered": true
      }
    },
    {
      "type": "Feature",
      "geometry": {
        "type": "Polygon",
        "coordinates": [
          [
            [
              -1.9768,
              5.3099
            ],
            [
              -1.9717427441652249,
              5.3099
            ],
            [
              -1.9717427441652249,
              5.312715629637958
            ],
            [
              -1.9768,
              5.312715629637958
            ],
            [
              -1.9768,
              5.3099
            ]
          ]
        ]
      },
      "properties": {
        "parcel_id": "TWKP-0022",
        "owner_name": "Esi Amoah",
        "land_use": "Commercial",
        "tenure_type": "Customary",
        "area_m2": 174467.9,
        "area_ha": 17.4468,
        "reg_year": 1995,
        "district": "Tarkwa-Nsuaem",
        "region": "Western",
        "value_GHS": 117994651.83,
        "centroid_lon": -1.974271,
        "centroid_lat": 5.311308,
        "registered": false
      }
    },
    {
      "type": "Feature",
      "geometry": {
        "type": "Polygon",
        "coordinates": [
          [
            [
              -1.9724,
              5.3099
            ],
            [
              -1.9674943855518856,
              5.3099
            ],
            [
              -1.9674943855518856,
              5.312464294929887
            ],
            [
              -1.9724,
              5.312464294929887
            ],
            [
              -1.9724,
              5.3099
            ]
          ]
        ]
      },
      "properties": {
        "parcel_id": "TWKP-0023",
        "owner_name": "Kwame Yeboah",
        "land_use": "Agricultural",
        "tenure_type": "Customary",
        "area_m2": 154129.7,
        "area_ha": 15.413,
        "reg_year": 1986,
        "district": "Tarkwa-Nsuaem",
        "region": "Western",
        "value_GHS": 12617888.08,
        "centroid_lon": -1.969947,
        "centroid_lat": 5.311182,
        "registered": false
      }
    },
    {
      "type": "Feature",
      "geometry": {
        "type": "Polygon",
        "coordinates": [
          [
            [
              -1.968,
              5.3099
            ],
            [
              -1.9647471029399806,
              5.3099
            ],
            [
              -1.9647471029399806,
              5.312501968434666
            ],
            [
              -1.968,
              5.312501968434666
            ],
            [
              -1.968,
              5.3099
            ]
          ]
        ]
      },
      "properties": {
        "parcel_id": "TWKP-0024",
        "owner_name": "Adwoa Darko",
        "land_use": "Agricultural",
        "tenure_type": "Customary",
        "area_m2": 103704.4,
        "area_ha": 10.3704,
        "reg_year": 2004,
        "district": "Tarkwa-Nsuaem",
        "region": "Western",
        "value_GHS": 9225130.42,
        "centroid_lon": -1.966374,
        "centroid_lat": 5.311201,
        "registered": true
      }
    },
    {
      "type": "Feature",
      "geometry": {
        "type": "Polygon",
        "coordinates": [
          [
            [
              -1.99,
              5.3132
            ],
            [
              -1.986998064084012,
              5.3132
            ],
            [
              -1.986998064084012,
              5.315590931685371
            ],
            [
              -1.99,
              5.315590931685371
            ],
            [
              -1.99,
              5.3132
            ]
          ]
        ]
      },
      "properties": {
        "parcel_id": "TWKP-0025",
        "owner_name": "Ama Amoah",
        "land_use": "Public/Institutional",
        "tenure_type": "Leasehold",
        "area_m2": 87941.0,
        "area_ha": 8.7941,
        "reg_year": 2019,
        "district": "Tarkwa-Nsuaem",
        "region": "Western",
        "value_GHS": 18738480.73,
        "centroid_lon": -1.988499,
        "centroid_lat": 5.314395,
        "registered": true
      }
    },
    {
      "type": "Feature",
      "geometry": {
        "type": "Polygon",
        "coordinates": [
          [
            [
              -1.9856,
              5.3132
            ],
            [
              -1.982414060676598,
              5.3132
            ],
            [
              -1.982414060676598,
              5.31628772082086
            ],
            [
              -1.9856,
              5.31628772082086
            ],
            [
              -1.9856,
              5.3132
            ]
          ]
        ]
      },
      "properties": {
        "parcel_id": "TWKP-0026",
        "owner_name": "Kwame Owusu",
        "land_use": "Agricultural",
        "tenure_type": "Customary",
        "area_m2": 120530.8,
        "area_ha": 12.0531,
        "reg_year": 2020,
        "district": "Tarkwa-Nsuaem",
        "region": "Western",
        "value_GHS": 8629037.51,
        "centroid_lon": -1.984007,
        "centroid_lat": 5.314744,
        "registered": true
      }
    },
    {
      "type": "Feature",
      "geometry": {
        "type": "Polygon",
        "coordinates": [
          [
            [
              -1.9812,
              5.3132
            ],
            [
              -1.9766084206277168,
              5.3132
            ],
            [
              -1.9766084206277168,
              5.316469339218285
            ],
            [
              -1.9812,
              5.316469339218285
            ],
            [
              -1.9812,
              5.3132
            ]
          ]
        ]
      },
      "properties": {
        "parcel_id": "TWKP-0027",
        "owner_name": "Ama Yeboah",
        "land_use": "Industrial",
        "tenure_type": "Customary",
        "area_m2": 183926.7,
        "area_ha": 18.3927,
        "reg_year": 2017,
        "district": "Tarkwa-Nsuaem",
        "region": "Western",
        "value_GHS": 92287578.81,
        "centroid_lon": -1.978904,
        "centroid_lat": 5.314835,
        "registered": true
      }
    },
    {
      "type": "Feature",
      "geometry": {
        "type": "Polygon",
        "coordinates": [
          [
            [
              -1.9768,
              5.3132
            ],
            [
              -1.9733988916353464,
              5.3132
            ],
            [
              -1.9733988916353464,
              5.316361767525609
            ],
            [
              -1.9768,
              5.316361767525609
            ],
            [
              -1.9768,
              5.3132
            ]
          ]
        ]
      },
      "properties": {
        "parcel_id": "TWKP-0028",
        "owner_name": "Nana Quaye",
        "land_use": "Mixed Use",
        "tenure_type": "Leasehold",
        "area_m2": 131756.8,
        "area_ha": 13.1757,
        "reg_year": 1992,
        "district": "Tarkwa-Nsuaem",
        "region": "Western",
        "value_GHS": 66282370.91,
        "centroid_lon": -1.975099,
        "centroid_lat": 5.314781,
        "registered": true
      }
    },
    {
      "type": "Feature",
      "geometry": {
        "type": "Polygon",
        "coordinates": [
          [
            [
              -1.9724,
              5.3132
            ],
            [
              -1.9682154306768966,
              5.3132
            ],
            [
              -1.9682154306768966,
              5.316186531848874
            ],
            [
              -1.9724,
              5.316186531848874
            ],
            [
              -1.9724,
              5.3132
            ]
          ]
        ]
      },
      "properties": {
        "parcel_id": "TWKP-0029",
        "owner_name": "Ama Boateng",
        "land_use": "Residential",
        "tenure_type": "Customary",
        "area_m2": 153123.0,
        "area_ha": 15.3123,
        "reg_year": 2003,
        "district": "Tarkwa-Nsuaem",
        "region": "Western",
        "value_GHS": 59350101.49,
        "centroid_lon": -1.970308,
        "centroid_lat": 5.314693,
        "registered": true
      }
    },
    {
      "type": "Feature",
      "geometry": {
        "type": "Polygon",
        "coordinates": [
          [
            [
              -1.968,
              5.3132
            ],
            [
              -1.9628130787740863,
              5.3132
            ],
            [
              -1.9628130787740863,
              5.316145900125184
            ],
            [
              -1.968,
              5.316145900125184
            ],
            [
              -1.968,
              5.3132
            ]
          ]
        ]
      },
      "properties": {
        "parcel_id": "TWKP-0030",
        "owner_name": "Adwoa Mensah",
        "land_use": "Residential",
        "tenure_type": "Customary",
        "area_m2": 187219.2,
        "area_ha": 18.7219,
        "reg_year": 2021,
        "district": "Tarkwa-Nsuaem",
        "region": "Western",
        "value_GHS": 66909726.08,
        "centroid_lon": -1.965407,
        "centroid_lat": 5.314673,
        "registered": true
      }
    },
    {
      "type": "Feature",
      "geometry": {
        "type": "Polygon",
        "coordinates": [
          [
            [
              -1.99,
              5.3165
            ],
            [
              -1.9848472041990814,
              5.3165
            ],
            [
              -1.9848472041990814,
              5.31873562326081
            ],
            [
              -1.99,
              5.31873562326081
            ],
            [
              -1.99,
              5.3165
            ]
          ]
        ]
      },
      "properties": {
        "parcel_id": "TWKP-0031",
        "owner_name": "Ama Boateng",
        "land_use": "Residential",
        "tenure_type": "Freehold",
        "area_m2": 141143.8,
        "area_ha": 14.1144,
        "reg_year": 2017,
        "district": "Tarkwa-Nsuaem",
        "region": "Western",
        "value_GHS": 42869463.05,
        "centroid_lon": -1.987424,
        "centroid_lat": 5.317618,
        "registered": true
      }
    },
    {
      "type": "Feature",
      "geometry": {
        "type": "Polygon",
        "coordinates": [
          [
            [
              -1.9856,
              5.3165
            ],
            [
              -1.9805532285420142,
              5.3165
            ],
            [
              -1.9805532285420142,
              5.319852853634014
            ],
            [
              -1.9856,
              5.319852853634014
            ],
            [
              -1.9856,
              5.3165
            ]
          ]
        ]
      },
      "properties": {
        "parcel_id": "TWKP-0032",
        "owner_name": "Kwabena Darko",
        "land_use": "Agricultural",
        "tenure_type": "Freehold",
        "area_m2": 207323.5,
        "area_ha": 20.7324,
        "reg_year": 2016,
        "district": "Tarkwa-Nsuaem",
        "region": "Western",
        "value_GHS": 15648092.99,
        "centroid_lon": -1.983077,
        "centroid_lat": 5.318176,
        "registered": true
      }
    },
    {
      "type": "Feature",
      "geometry": {
        "type": "Polygon",
        "coordinates": [
          [
            [
              -1.9812,
              5.3165
            ],
            [
              -1.9776913025877947,
              5.3165
            ],
            [
              -1.9776913025877947,
              5.319180591375629
            ],
            [
              -1.9812,
              5.319180591375629
            ],
            [
              -1.9812,
              5.3165
            ]
          ]
        ]
      },
      "properties": {
        "parcel_id": "TWKP-0033",
        "owner_name": "Efua Acheampong",
        "land_use": "Industrial",
        "tenure_type": "Freehold",
        "area_m2": 115238.3,
        "area_ha": 11.5238,
        "reg_year": 2013,
        "district": "Tarkwa-Nsuaem",
        "region": "Western",
        "value_GHS": 55770286.45,
        "centroid_lon": -1.979446,
        "centroid_lat": 5.31784,
        "registered": true
      }
    },
    {
      "type": "Feature",
      "geometry": {
        "type": "Polygon",
        "coordinates": [
          [
            [
              -1.9768,
              5.3165
            ],
            [
              -1.9725323670939223,
              5.3165
            ],
            [
              -1.9725323670939223,
              5.31874686952472
            ],
            [
              -1.9768,
              5.31874686952472
            ],
            [
              -1.9768,
              5.3165
            ]
          ]
        ]
      },
      "properties": {
        "parcel_id": "TWKP-0034",
        "owner_name": "Kwame Frimpong",
        "land_use": "Residential",
        "tenure_type": "Leasehold",
        "area_m2": 117485.8,
        "area_ha": 11.7486,
        "reg_year": 2004,
        "district": "Tarkwa-Nsuaem",
        "region": "Western",
        "value_GHS": 44441983.62,
        "centroid_lon": -1.974666,
        "centroid_lat": 5.317623,
        "registered": false
      }
    },
    {
      "type": "Feature",
      "geometry": {
        "type": "Polygon",
        "coordinates": [
          [
            [
              -1.9724,
              5.3165
            ],
            [
              -1.9674639871796378,
              5.3165
            ],
            [
              -1.9674639871796378,
              5.3192083912823325
            ],
            [
              -1.9724,
              5.3192083912823325
            ],
            [
              -1.9724,
              5.3165
            ]
          ]
        ]
      },
      "properties": {
        "parcel_id": "TWKP-0035",
        "owner_name": "Kwabena Darko",
        "land_use": "Residential",
        "tenure_type": "Freehold",
        "area_m2": 163797.8,
        "area_ha": 16.3798,
        "reg_year": 2007,
        "district": "Tarkwa-Nsuaem",
        "region": "Western",
        "value_GHS": 53388479.9,
        "centroid_lon": -1.969932,
        "centroid_lat": 5.317854,
        "registered": true
      }
    },
    {
      "type": "Feature",
      "geometry": {
        "type": "Polygon",
        "coordinates": [
          [
            [
              -1.968,
              5.3165
            ],
            [
              -1.9628435818680547,
              5.3165
            ],
            [
              -1.9628435818680547,
              5.320110080303724
            ],
            [
              -1.968,
              5.320110080303724
            ],
            [
              -1.968,
              5.3165
            ]
          ]
        ]
      },
      "properties": {
        "parcel_id": "TWKP-0036",
        "owner_name": "Kwabena Darko",
        "land_use": "Industrial",
        "tenure_type": "Freehold",
        "area_m2": 228079.0,
        "area_ha": 22.8079,
        "reg_year": 1990,
        "district": "Tarkwa-Nsuaem",
        "region": "Western",
        "value_GHS": 115731044.58,
        "centroid_lon": -1.965422,
        "centroid_lat": 5.318305,
        "registered": true
      }
    },
    {
      "type": "Feature",
      "geometry": {
        "type": "Polygon",
        "coordinates": [
          [
            [
              -1.99,
              5.3198
            ],
            [
              -1.9852131143909097,
              5.3198
            ],
            [
              -1.9852131143909097,
              5.3223887772484755
            ],
            [
              -1.99,
              5.3223887772484755
            ],
            [
              -1.99,
              5.3198
            ]
          ]
        ]
      },
      "properties": {
        "parcel_id": "TWKP-0037",
        "owner_name": "Kojo Owusu",
        "land_use": "Mixed Use",
        "tenure_type": "Leasehold",
        "area_m2": 151832.8,
        "area_ha": 15.1833,
        "reg_year": 1990,
        "district": "Tarkwa-Nsuaem",
        "region": "Western",
        "value_GHS": 65902070.74,
        "centroid_lon": -1.987607,
        "centroid_lat": 5.321094,
        "registered": true
      }
    },
    {
      "type": "Feature",
      "geometry": {
        "type": "Polygon",
        "coordinates": [
          [
            [
              -1.9856,
              5.3198
            ],
            [
              -1.9824679525781974,
              5.3198
            ],
            [
              -1.9824679525781974,
              5.322138941760037
            ],
            [
              -1.9856,
              5.322138941760037
            ],
            [
              -1.9856,
              5.3198
            ]
          ]
        ]
      },
      "properties": {
        "parcel_id": "TWKP-0038",
        "owner_name": "Kwame Frimpong",
        "land_use": "Mixed Use",
        "tenure_type": "Customary",
        "area_m2": 89756.5,
        "area_ha": 8.9756,
        "reg_year": 2003,
        "district": "Tarkwa-Nsuaem",
        "region": "Western",
        "value_GHS": 36687951.89,
        "centroid_lon": -1.984034,
        "centroid_lat": 5.320969,
        "registered": true
      }
    },
    {
      "type": "Feature",
      "geometry": {
        "type": "Polygon",
        "coordinates": [
          [
            [
              -1.9812,
              5.3198
            ],
            [
              -1.9782117046847787,
              5.3198
            ],
            [
              -1.9782117046847787,
              5.3219456313381475
            ],
            [
              -1.9812,
              5.3219456313381475
            ],
            [
              -1.9812,
              5.3198
            ]
          ]
        ]
      },
      "properties": {
        "parcel_id": "TWKP-0039",
        "owner_name": "Esi Amponsah",
        "land_use": "Mixed Use",
        "tenure_type": "Customary",
        "area_m2": 78559.1,
        "area_ha": 7.8559,
        "reg_year": 1993,
        "district": "Tarkwa-Nsuaem",
        "region": "Western",
        "value_GHS": 29104170.57,
        "centroid_lon": -1.979706,
        "centroid_lat": 5.320873,
        "registered": false
      }
    },
    {
      "type": "Feature",
      "geometry": {
        "type": "Polygon",
        "coordinates": [
          [
            [
              -1.9768,
              5.3198
            ],
            [
              -1.9729383546486452,
              5.3198
            ],
            [
              -1.9729383546486452,
              5.322331617246483
            ],
            [
              -1.9768,
              5.322331617246483
            ],
            [
              -1.9768,
              5.3198
            ]
          ]
        ]
      },
      "properties": {
        "parcel_id": "TWKP-0040",
        "owner_name": "Ama Acheampong",
        "land_use": "Residential",
        "tenure_type": "Freehold",
        "area_m2": 119781.1,
        "area_ha": 11.9781,
        "reg_year": 1985,
        "district": "Tarkwa-Nsuaem",
        "region": "Western",
        "value_GHS": 44558040.49,
        "centroid_lon": -1.974869,
        "centroid_lat": 5.321066,
        "registered": true
      }
    },
    {
      "type": "Feature",
      "geometry": {
        "type": "Polygon",
        "coordinates": [
          [
            [
              -1.9724,
              5.3198
            ],
            [
              -1.9678479056402516,
              5.3198
            ],
            [
              -1.9678479056402516,
              5.321985889029845
            ],
            [
              -1.9724,
              5.321985889029845
            ],
            [
              -1.9724,
              5.3198
            ]
          ]
        ]
      },
      "properties": {
        "parcel_id": "TWKP-0041",
        "owner_name": "Fiifi Yeboah",
        "land_use": "Agricultural",
        "tenure_type": "Freehold",
        "area_m2": 121915.1,
        "area_ha": 12.1915,
        "reg_year": 2006,
        "district": "Tarkwa-Nsuaem",
        "region": "Western",
        "value_GHS": 7982035.73,
        "centroid_lon": -1.970124,
        "centroid_lat": 5.320893,
        "registered": true
      }
    },
    {
      "type": "Feature",
      "geometry": {
        "type": "Polygon",
        "coordinates": [
          [
            [
              -1.968,
              5.3198
            ],
            [
              -1.9631468945983737,
              5.3198
            ],
            [
              -1.9631468945983737,
              5.323166584146884
            ],
            [
              -1.968,
              5.323166584146884
            ],
            [
              -1.968,
              5.3198
            ]
          ]
        ]
      },
      "properties": {
        "parcel_id": "TWKP-0042",
        "owner_name": "Kweku Owusu",
        "land_use": "Commercial",
        "tenure_type": "Freehold",
        "area_m2": 200183.0,
        "area_ha": 20.0183,
        "reg_year": 2005,
        "district": "Tarkwa-Nsuaem",
        "region": "Western",
        "value_GHS": 139212182.38,
        "centroid_lon": -1.965573,
        "centroid_lat": 5.321483,
        "registered": true
      }
    },
    {
      "type": "Feature",
      "geometry": {
        "type": "Polygon",
        "coordinates": [
          [
            [
              -1.99,
              5.3231
            ],
            [
              -1.9862435886374463,
              5.3231
            ],
            [
              -1.9862435886374463,
              5.326308530176494
            ],
            [
              -1.99,
              5.326308530176494
            ],
            [
              -1.99,
              5.3231
            ]
          ]
        ]
      },
      "properties": {
        "parcel_id": "TWKP-0043",
        "owner_name": "Efua Tetteh",
        "land_use": "Agricultural",
        "tenure_type": "Freehold",
        "area_m2": 147670.9,
        "area_ha": 14.7671,
        "reg_year": 2015,
        "district": "Tarkwa-Nsuaem",
        "region": "Western",
        "value_GHS": 13861861.75,
        "centroid_lon": -1.988122,
        "centroid_lat": 5.324704,
        "registered": true
      }
    },
    {
      "type": "Feature",
      "geometry": {
        "type": "Polygon",
        "coordinates": [
          [
            [
              -1.9856,
              5.3231
            ],
            [
              -1.98150549412384,
              5.3231
            ],
            [
              -1.98150549412384,
              5.326431134784917
            ],
            [
              -1.9856,
              5.326431134784917
            ],
            [
              -1.9856,
              5.3231
            ]
          ]
        ]
      },
      "properties": {
        "parcel_id": "TWKP-0044",
        "owner_name": "Kwame Yeboah",
        "land_use": "Agricultural",
        "tenure_type": "State Allocation",
        "area_m2": 167112.7,
        "area_ha": 16.7113,
        "reg_year": 1986,
        "district": "Tarkwa-Nsuaem",
        "region": "Western",
        "value_GHS": 13827710.05,
        "centroid_lon": -1.983553,
        "centroid_lat": 5.324766,
        "registered": false
      }
    },
    {
      "type": "Feature",
      "geometry": {
        "type": "Polygon",
        "coordinates": [
          [
            [
              -1.9812,
              5.3231
            ],
            [
              -1.977018861973098,
              5.3231
            ],
            [
              -1.977018861973098,
              5.325898705867172
            ],
            [
              -1.9812,
              5.325898705867172
            ],
            [
              -1.9812,
              5.3231
            ]
          ]
        ]
      },
      "properties": {
        "parcel_id": "TWKP-0045",
        "owner_name": "Esi Boateng",
        "land_use": "Agricultural",
        "tenure_type": "Leasehold",
        "area_m2": 143373.0,
        "area_ha": 14.3373,
        "reg_year": 2021,
        "district": "Tarkwa-Nsuaem",
        "region": "Western",
        "value_GHS": 12939937.85,
        "centroid_lon": -1.979109,
        "centroid_lat": 5.324499,
        "registered": true
      }
    },
    {
      "type": "Feature",
      "geometry": {
        "type": "Polygon",
        "coordinates": [
          [
            [
              -1.9768,
              5.3231
            ],
            [
              -1.9735039575362956,
              5.3231
            ],
            [
              -1.9735039575362956,
              5.325693130029178
            ],
            [
              -1.9768,
              5.325693130029178
            ],
            [
              -1.9768,
              5.3231
            ]
          ]
        ]
      },
      "properties": {
        "parcel_id": "TWKP-0046",
        "owner_name": "Kweku Mensah",
        "land_use": "Residential",
        "tenure_type": "Leasehold",
        "area_m2": 104720.8,
        "area_ha": 10.4721,
        "reg_year": 2019,
        "district": "Tarkwa-Nsuaem",
        "region": "Western",
        "value_GHS": 38935315.85,
        "centroid_lon": -1.975152,
        "centroid_lat": 5.324397,
        "registered": true
      }
    },
    {
      "type": "Feature",
      "geometry": {
        "type": "Polygon",
        "coordinates": [
          [
            [
              -1.9724,
              5.3231
            ],
            [
              -1.9679641271944652,
              5.3231
            ],
            [
              -1.9679641271944652,
              5.325813124225036
            ],
            [
              -1.9724,
              5.325813124225036
            ],
            [
              -1.9724,
              5.3231
            ]
          ]
        ]
      },
      "properties": {
        "parcel_id": "TWKP-0047",
        "owner_name": "Kojo Frimpong",
        "land_use": "Residential",
        "tenure_type": "Leasehold",
        "area_m2": 147456.7,
        "area_ha": 14.7457,
        "reg_year": 1995,
        "district": "Tarkwa-Nsuaem",
        "region": "Western",
        "value_GHS": 56462637.05,
        "centroid_lon": -1.970182,
        "centroid_lat": 5.324457,
        "registered": false
      }
    },
    {
      "type": "Feature",
      "geometry": {
        "type": "Polygon",
        "coordinates": [
          [
            [
              -1.968,
              5.3231
            ],
            [
              -1.9645231170258288,
              5.3231
            ],
            [
              -1.9645231170258288,
              5.325519391178804
            ],
            [
              -1.968,
              5.325519391178804
            ],
            [
              -1.968,
              5.3231
            ]
          ]
        ]
      },
      "properties": {
        "parcel_id": "TWKP-0048",
        "owner_name": "Ama Owusu",
        "land_use": "Agricultural",
        "tenure_type": "Customary",
        "area_m2": 103065.1,
        "area_ha": 10.3065,
        "reg_year": 2019,
        "district": "Tarkwa-Nsuaem",
        "region": "Western",
        "value_GHS": 7823113.0,
        "centroid_lon": -1.966262,
        "centroid_lat": 5.32431,
        "registered": false
      }
    }
  ]
}