{
  "type": "FeatureCollection",
  "features": [
    {
      "type": "Feature",
      "geometry": {
        "type": "LineString",
        "coordinates": [
          [
            -1.9949999999999999,
            5.325
          ],
          [
            -1.985,
            5.319999999999999
          ],
          [
            -1.978,
            5.3149999999999995
          ],
          [
            -1.972,
            5.308
          ],
          [
            -1.965,
            5.3
          ]
        ]
      },
      "properties": {
        "name": "Bonsa River (section)",
        "type": "River",
        "width_m": 18,
        "perennial": true
      }
    },
    {
      "type": "Feature",
      "geometry": {
        "type": "Polygon",
        "coordinates": [
          [
            [
              -1.9805,
              5.312
            ],
            [
              -1.980701,
              5.31275
            ],
            [
              -1.98125,
              5.313299
            ],
            [
              -1.982,
              5.3135
            ],
            [
              -1.98275,
              5.313299
            ],
            [
              -1.983299,
              5.31275
            ],
            [
              -1.9835,
              5.312
            ],
            [
              -1.983299,
              5.31125
            ],
            [
              -1.98275,
              5.310701
            ],
            [
              -1.982,
              5.3105
            ],
            [
              -1.98125,
              5.310701
            ],
            [
              -1.980701,
              5.31125
            ],
            [
              -1.9805,
              5.312
            ]
          ]
        ]
      },
      "properties": {
        "name": "Pond 1",
        "type": "Pond",
        "area_m2": 87092.0,
        "perennial": false
      }
    },
    {
      "type": "Feature",
      "geometry": {
        "type": "Polygon",
        "coordinates": [
          [
            [
              -1.969,
              5.319
            ],
            [
              -1.969134,
              5.3195
            ],
            [
              -1.9695,
              5.319866
            ],
            [
              -1.97,
              5.32
            ],
            [
              -1.9705,
              5.319866
            ],
            [
              -1.970866,
              5.3195
            ],
            [
              -1.971,
              5.319
            ],
            [
              -1.970866,
              5.3185
            ],
            [
              -1.9705,
              5.318134
            ],
            [
              -1.97,
              5.318
            ],
            [
              -1.9695,
              5.318134
            ],
            [
              -1.969134,
              5.3185
            ],
            [
              -1.969,
              5.319
            ]
          ]
        ]
      },
      "properties": {
        "name": "Pond 2",
        "type": "Pond",
        "area_m2": 38707.6,
        "perennial": true
      }
    }
  ]
}